{
 "type": "FeatureCollection",
 "name": "BBL_GIS_IMMO_Building",
 "features": [
  {
   "type": "Feature",
   "properties": {
    "bbl_stat": "Aktiv",
    "bbl_id": "1000/4840/AF",
    "bbl_buch": "1000",
    "bbl_we": "4840",
    "bbl_obj": "AF",
    "bbl_bez": "Bundeshaus West",
    "adr_land": "CH",
    "adr_reg": "BE",
    "adr_ort": "Bern",
    "adr_plz": "3011",
    "adr_str": "Bundesgasse",
    "adr_hsnr": "1",
    "adr_conct": "Bundesgasse 1, 3011 Bern",
    "wgs84_lat": 46.946346,
    "wgs84_lon": 7.442977,
    "lv95_e": 2599669.6,
    "lv95_n": 1199471.6,
    "egm_elev": null,
    "bbl_eigen": "Eigentum Bund",
    "bbl_ostr": "Erhalten",
    "bbl_mietm": "Vollkostenmiete",
    "bbl_bjahr": 1857,
    "bbl_vjahr": 2010,
    "bbl_port": "Verwaltungsgebäude",
    "bbl_port2": "Bundesverwaltung",
    "bbl_awrt": 85000000,
    "bbl_bwrt": 42000000,
    "bbl_gbda1": "Verwaltung",
    "bbl_gbda2": "Departementsgebäude",
    "bbl_ovtw": "Anna Müller",
    "bbl_pvtw": "Thomas Weber",
    "av_egid": "1230654",
    "av_egrid": "CH127620463518",
    "bfs_gem": "Bern",
    "bfs_gemnr": 351,
    "av_zbez": "Verwaltungszone",
    "av_znut": "Zone für öffentliche Nutzung",
    "bbl_hist": "Ja",
    "bbl_arch": "Ja",
    "kgs_kat": "A",
    "kgs_nr": 615,
    "garea_gf": 15860,
    "garea_gfo": 12800,
    "garea_gfu": 2400,
    "garea_acu": "Vermessen",
    "garea_ngf": 13100,
    "garea_nf": 11500,
    "garea_hnf": 9800,
    "garea_nnf": 1700,
    "garea_ff": 800,
    "garea_vf": 800,
    "garea_vmf": 10200,
    "garea_ebf": 12500,
    "gvol_gv": 69025,
    "gvol_gvo": 39200,
    "gvol_gvu": 9300,
    "gvol_acu": "Vermessen",
    "gastw": 6,
    "gastw_og": 4,
    "gastw_ug": 1,
    "gastw_acu": "Vermessen",
    "larea_ggf": 3200,
    "larea_gsf": 5100,
    "larea_uf": 1900,
    "larea_acu": "AV",
    "objectid": 1,
    "etl_ts": "2026-03-18T06:00:00Z",
    "bbl_architekt": "Friedrich Studer (1852–1857); Itten + Brechbühl AG, Bern (Sanierung 2008–2010)",
    "bbl_nutzer": "EDA, Bundeskanzlei, EJPD, Parlamentsdienste",
    "quellen": [
     "https://www.bbl.admin.ch/dam/de/sd-web/xpRh20JjlO-A/20100101_Bern%2C%20Bundesgasse%201%2C%20Sanierung_DE.pdf"
    ],
    "datenherkunft": "BBL-Bautendokumentation; Kataster © Data: swisstopo / amtliche Vermessung",
    "media": [
     "MED-001",
     "MED-002",
     "MED-003",
     "MED-004",
     "MED-005",
     "MED-006",
     "MED-007"
    ]
   },
   "geometry": {
    "type": "Point",
    "coordinates": [
     7.442977,
     46.946346
    ]
   }
  },
  {
   "type": "Feature",
   "properties": {
    "bbl_stat": "Aktiv",
    "bbl_id": "1000/5210/AA",
    "bbl_buch": "1000",
    "bbl_we": "5210",
    "bbl_obj": "AA",
    "bbl_bez": "Schweizerische Botschaft Berlin",
    "adr_land": "DE",
    "adr_reg": "Berlin",
    "adr_ort": "Berlin",
    "adr_plz": "10557",
    "adr_str": "Otto-von-Bismarck-Allee",
    "adr_hsnr": "4A",
    "adr_conct": "Otto-von-Bismarck-Allee 4A, 10557 Berlin",
    "wgs84_lat": 52.521102,
    "wgs84_lon": 13.371281,
    "lv95_e": null,
    "lv95_n": null,
    "egm_elev": null,
    "bbl_eigen": "Eigentum Bund",
    "bbl_ostr": "Erhalten",
    "bbl_mietm": "Vollkostenmiete",
    "bbl_bjahr": 1870,
    "bbl_vjahr": 2000,
    "bbl_port": "Diplomatische Vertretung",
    "bbl_port2": "Aussennetz EDA",
    "bbl_awrt": 32000000,
    "bbl_bwrt": 24000000,
    "bbl_gbda1": "Verwaltung",
    "bbl_gbda2": "Botschaft (Kanzlei)",
    "bbl_ovtw": "Peter Schmidt",
    "bbl_pvtw": "Monika Keller",
    "av_egid": null,
    "av_egrid": null,
    "bfs_gem": "Berlin",
    "bfs_gemnr": null,
    "av_zbez": null,
    "av_znut": null,
    "bbl_hist": "Ja",
    "bbl_arch": "Ja",
    "kgs_kat": null,
    "kgs_nr": null,
    "garea_gf": 5701,
    "garea_gfo": 4200,
    "garea_gfu": 600,
    "garea_acu": "Geschätzt",
    "garea_ngf": 4100,
    "garea_nf": 3600,
    "garea_hnf": 3000,
    "garea_nnf": 600,
    "garea_ff": 300,
    "garea_vf": 200,
    "garea_vmf": 3200,
    "garea_ebf": 3200,
    "gvol_gv": 16800,
    "gvol_gvo": 14700,
    "gvol_gvu": 2100,
    "gvol_acu": "Geschätzt",
    "gastw": 4,
    "gastw_og": 3,
    "gastw_ug": 1,
    "gastw_acu": "Geschätzt",
    "larea_ggf": 1400,
    "larea_gsf": 1800,
    "larea_uf": 400,
    "larea_acu": "Geschätzt",
    "objectid": 2,
    "etl_ts": "2026-03-18T06:00:00Z",
    "bbl_architekt": "Friedrich Hitzig (1870/71); Diener & Diener Architekten, Basel (Erweiterung 1995–2000)",
    "bbl_nutzer": "EDA — Schweizerische Botschaft in Deutschland",
    "quellen": [
     "https://www.bbl.admin.ch/dam/de/sd-web/6KztH5h4iF7L/20001201_Berlin%2C%20Deutschland%2C%20Schweizerische%20Botschaft_DE.pdf"
    ],
    "datenherkunft": "BBL / EDA, Koordinaten OpenStreetMap",
    "media": [
     "MED-008",
     "MED-009",
     "MED-010",
     "MED-011",
     "MED-012",
     "MED-013",
     "MED-014"
    ]
   },
   "geometry": {
    "type": "Point",
    "coordinates": [
     13.371281,
     52.521102
    ]
   }
  },
  {
   "type": "Feature",
   "properties": {
    "bbl_stat": "Aktiv",
    "bbl_id": "1000/3120/AB",
    "bbl_buch": "1000",
    "bbl_we": "3120",
    "bbl_obj": "AB",
    "bbl_bez": "Sammlungszentrum Schweizerisches Nationalmuseum",
    "adr_land": "CH",
    "adr_reg": "ZH",
    "adr_ort": "Affoltern am Albis",
    "adr_plz": "8910",
    "adr_str": "Lindenmoosstrasse",
    "adr_hsnr": "1",
    "adr_conct": "Lindenmoosstrasse 1, 8910 Affoltern am Albis",
    "wgs84_lat": 47.268894,
    "wgs84_lon": 8.445229,
    "lv95_e": 2676876,
    "lv95_n": 1237056,
    "egm_elev": null,
    "bbl_eigen": "Eigentum Bund",
    "bbl_ostr": "Optimieren",
    "bbl_mietm": "Kostenmiete",
    "bbl_bjahr": 1985,
    "bbl_vjahr": 2007,
    "bbl_port": "Lager / Logistik",
    "bbl_port2": "Kultur",
    "bbl_awrt": 18500000,
    "bbl_bwrt": 8200000,
    "bbl_gbda1": "Lager",
    "bbl_gbda2": "Sammlungsdepot",
    "bbl_ovtw": "Hans Brunner",
    "bbl_pvtw": "Sandra Meier",
    "av_egid": "201028111",
    "av_egrid": "CH827785288941",
    "bfs_gem": "Affoltern am Albis",
    "bfs_gemnr": 2,
    "av_zbez": "Industriezone",
    "av_znut": "Industrie- und Gewerbezone",
    "bbl_hist": "Ja",
    "bbl_arch": "Nein",
    "kgs_kat": "A",
    "kgs_nr": 11777,
    "garea_gf": 20093,
    "garea_gfo": 18000,
    "garea_gfu": 7000,
    "garea_acu": "Vermessen",
    "garea_ngf": 22000,
    "garea_nf": 19500,
    "garea_hnf": 17000,
    "garea_nnf": 2500,
    "garea_ff": 1200,
    "garea_vf": 1300,
    "garea_vmf": 18500,
    "garea_ebf": 19000,
    "gvol_gv": 92810,
    "gvol_gvo": 68400,
    "gvol_gvu": 26600,
    "gvol_acu": "Vermessen",
    "gastw": 3,
    "gastw_og": 3,
    "gastw_ug": 1,
    "gastw_acu": "Vermessen",
    "larea_ggf": 6500,
    "larea_gsf": 12500,
    "larea_uf": 6000,
    "larea_acu": "AV",
    "objectid": 3,
    "etl_ts": "2026-03-18T06:00:00Z",
    "bbl_architekt": "Stücheli Architekten AG, Zürich (Umnutzung 2005–2007)",
    "bbl_nutzer": "Schweizerisches Nationalmuseum",
    "quellen": [
     "https://www.bbl.admin.ch/dam/de/sd-web/B66TZzOayoZP/20070901_Affoltern%20am%20Albis%20Umnutzung%20vom%20Zeughaus%20zum%20Sammlungszentrum_DE.pdf"
    ],
    "datenherkunft": "BBL-Bautendokumentation; Kataster © Data: swisstopo / amtliche Vermessung",
    "media": [
     "MED-015",
     "MED-016",
     "MED-017",
     "MED-018",
     "MED-019",
     "MED-020"
    ]
   },
   "geometry": {
    "type": "Point",
    "coordinates": [
     8.445229,
     47.268894
    ]
   }
  },
  {
   "type": "Feature",
   "properties": {
    "bbl_stat": "Aktiv",
    "bbl_id": "1000/5320/AA",
    "bbl_buch": "1000",
    "bbl_we": "5320",
    "bbl_obj": "AA",
    "bbl_bez": "Schweizerisches Generalkonsulat New York",
    "adr_land": "US",
    "adr_reg": "NY",
    "adr_ort": "New York",
    "adr_plz": "10017",
    "adr_str": "Third Avenue",
    "adr_hsnr": "633",
    "adr_conct": "Third Avenue 633, 10017 New York",
    "wgs84_lat": 40.753889,
    "wgs84_lon": -73.9725,
    "lv95_e": null,
    "lv95_n": null,
    "egm_elev": null,
    "bbl_eigen": "Miete",
    "bbl_ostr": "Erhalten",
    "bbl_mietm": null,
    "bbl_bjahr": 1963,
    "bbl_vjahr": null,
    "bbl_port": "Diplomatische Vertretung",
    "bbl_port2": "Aussennetz EDA",
    "bbl_awrt": null,
    "bbl_bwrt": null,
    "bbl_gbda1": "Verwaltung",
    "bbl_gbda2": "Generalkonsulat",
    "bbl_ovtw": "Luca Rossi",
    "bbl_pvtw": "Monika Keller",
    "av_egid": null,
    "av_egrid": null,
    "bfs_gem": "New York",
    "bfs_gemnr": null,
    "av_zbez": null,
    "av_znut": null,
    "bbl_hist": "Nein",
    "bbl_arch": "Nein",
    "kgs_kat": null,
    "kgs_nr": null,
    "garea_gf": 2800,
    "garea_gfo": 2800,
    "garea_gfu": null,
    "garea_acu": "Geschätzt",
    "garea_ngf": 2400,
    "garea_nf": 2100,
    "garea_hnf": 1800,
    "garea_nnf": 300,
    "garea_ff": 150,
    "garea_vf": 150,
    "garea_vmf": 2100,
    "garea_ebf": 2100,
    "gvol_gv": null,
    "gvol_gvo": null,
    "gvol_gvu": null,
    "gvol_acu": null,
    "gastw": 3,
    "gastw_og": 3,
    "gastw_ug": 0,
    "gastw_acu": "Geschätzt",
    "larea_ggf": null,
    "larea_gsf": null,
    "larea_uf": null,
    "larea_acu": null,
    "objectid": 4,
    "etl_ts": "2026-03-18T06:00:00Z",
    "bbl_architekt": null,
    "bbl_nutzer": "EDA — Generalkonsulat, Swissnex, Schweiz Tourismus",
    "quellen": [
     "https://www.eda.admin.ch/countries/usa/en/home/representations/generalkonsulat-new-york.html"
    ],
    "datenherkunft": "BBL / EDA, Koordinaten OpenStreetMap",
    "media": [
     "MED-021",
     "MED-022",
     "MED-023",
     "MED-024",
     "MED-025",
     "MED-026"
    ]
   },
   "geometry": {
    "type": "Point",
    "coordinates": [
     -73.9725,
     40.753889
    ]
   }
  },
  {
   "type": "Feature",
   "properties": {
    "bbl_stat": "Aktiv",
    "bbl_id": "1000/4100/AC",
    "bbl_buch": "1000",
    "bbl_we": "4100",
    "bbl_obj": "AC",
    "bbl_bez": "Campus BAZG (Ausbildungszentrum Liestal)",
    "adr_land": "CH",
    "adr_reg": "BL",
    "adr_ort": "Liestal",
    "adr_plz": "4410",
    "adr_str": "Kasinostrasse",
    "adr_hsnr": "4",
    "adr_conct": "Kasinostrasse 4, 4410 Liestal",
    "wgs84_lat": 47.479862,
    "wgs84_lon": 7.744051,
    "lv95_e": 2622310,
    "lv95_n": 1259520,
    "egm_elev": null,
    "bbl_eigen": "Eigentum Bund",
    "bbl_ostr": "Erhalten",
    "bbl_mietm": "Vollkostenmiete",
    "bbl_bjahr": 1981,
    "bbl_vjahr": 2015,
    "bbl_port": "Ausbildung",
    "bbl_port2": "Bundesverwaltung",
    "bbl_awrt": 22000000,
    "bbl_bwrt": 14500000,
    "bbl_gbda1": "Ausbildung",
    "bbl_gbda2": "Schulungs- und Unterkunftsgebäude",
    "bbl_ovtw": "Claire Dubois",
    "bbl_pvtw": "Thomas Weber",
    "av_egid": "9004666",
    "av_egrid": "CH207059761779",
    "bfs_gem": "Liestal",
    "bfs_gemnr": 2829,
    "av_zbez": "Zone mixte",
    "av_znut": "Mischzone Wohnen/Arbeiten",
    "bbl_hist": "Nein",
    "bbl_arch": "Nein",
    "kgs_kat": null,
    "kgs_nr": null,
    "garea_gf": 2480,
    "garea_gfo": 7000,
    "garea_gfu": 1500,
    "garea_acu": "Vermessen",
    "garea_ngf": 7400,
    "garea_nf": 6500,
    "garea_hnf": 5600,
    "garea_nnf": 900,
    "garea_ff": 500,
    "garea_vf": 400,
    "garea_vmf": 6200,
    "garea_ebf": 6800,
    "gvol_gv": 8510,
    "gvol_gvo": 24500,
    "gvol_gvu": 5250,
    "gvol_acu": "Vermessen",
    "gastw": 3,
    "gastw_og": 3,
    "gastw_ug": 1,
    "gastw_acu": "Vermessen",
    "larea_ggf": 2200,
    "larea_gsf": 4500,
    "larea_uf": 2300,
    "larea_acu": "AV",
    "objectid": 5,
    "etl_ts": "2026-03-18T06:00:00Z",
    "bbl_architekt": "Zwimpfer + Meyer, Basel (1981); Aschwanden Schürer Architekten AG, Zürich (Erweiterung 2015)",
    "bbl_nutzer": "Bundesamt für Zoll und Grenzsicherheit BAZG",
    "quellen": [
     "https://www.bbl.admin.ch/dam/de/sd-web/YMr47zVY9cLN/20150501_Liestal%20Kasinostrasse%204%20Zollschule%20Erweiterung%20Modulbau_DE.pdf"
    ],
    "datenherkunft": "BBL-Bautendokumentation; Kataster © Data: swisstopo / amtliche Vermessung",
    "media": [
     "MED-027",
     "MED-028",
     "MED-029",
     "MED-030",
     "MED-031",
     "MED-032"
    ]
   },
   "geometry": {
    "type": "Point",
    "coordinates": [
     7.744051,
     47.479862
    ]
   }
  },
  {
   "type": "Feature",
   "properties": {
    "bbl_stat": "Löschvermerk",
    "bbl_id": "1000/5410/AA",
    "bbl_buch": "1000",
    "bbl_we": "5410",
    "bbl_obj": "AA",
    "bbl_bez": "Schweizerische Botschaft Tokio",
    "adr_land": "JP",
    "adr_reg": "Präfektur Tokio",
    "adr_ort": "Tokio",
    "adr_plz": "106-8589",
    "adr_str": "Minami-Azabu, Minato-ku",
    "adr_hsnr": "5-9-12",
    "adr_conct": "Minami-Azabu, Minato-ku 5-9-12, 106-8589 Tokio",
    "wgs84_lat": 35.653365,
    "wgs84_lon": 139.723812,
    "lv95_e": null,
    "lv95_n": null,
    "egm_elev": null,
    "bbl_eigen": "Eigentum Bund",
    "bbl_ostr": "Erhalten",
    "bbl_mietm": "Vollkostenmiete",
    "bbl_bjahr": 1983,
    "bbl_vjahr": null,
    "bbl_port": "Diplomatische Vertretung",
    "bbl_port2": "Aussennetz EDA",
    "bbl_awrt": 45000000,
    "bbl_bwrt": 28000000,
    "bbl_gbda1": "Verwaltung",
    "bbl_gbda2": "Botschaft mit Residenz",
    "bbl_ovtw": "Kenji Watanabe",
    "bbl_pvtw": "Monika Keller",
    "av_egid": null,
    "av_egrid": null,
    "bfs_gem": "Minato-ku",
    "bfs_gemnr": null,
    "av_zbez": null,
    "av_znut": null,
    "bbl_hist": "Nein",
    "bbl_arch": "Ja",
    "kgs_kat": null,
    "kgs_nr": null,
    "garea_gf": 3600,
    "garea_gfo": 3200,
    "garea_gfu": 400,
    "garea_acu": "Geschätzt",
    "garea_ngf": 3100,
    "garea_nf": 2700,
    "garea_hnf": 2300,
    "garea_nnf": 400,
    "garea_ff": 200,
    "garea_vf": 200,
    "garea_vmf": 2500,
    "garea_ebf": 2600,
    "gvol_gv": 12600,
    "gvol_gvo": 11200,
    "gvol_gvu": 1400,
    "gvol_acu": "Geschätzt",
    "gastw": 3,
    "gastw_og": 3,
    "gastw_ug": 0,
    "gastw_acu": "Geschätzt",
    "larea_ggf": 1200,
    "larea_gsf": 2100,
    "larea_uf": 900,
    "larea_acu": "Geschätzt",
    "objectid": 6,
    "etl_ts": "2026-03-18T06:00:00Z",
    "bbl_architekt": "Rolf Kaiser",
    "bbl_nutzer": "EDA — Schweizerische Botschaft in Japan",
    "quellen": [
     "https://www.eda.admin.ch/countries/japan/en/home/representations/embassy-tokyo.html"
    ],
    "datenherkunft": "BBL / EDA, Koordinaten OpenStreetMap",
    "media": [
     "MED-033",
     "MED-034",
     "MED-035",
     "MED-036",
     "MED-037",
     "MED-038"
    ]
   },
   "geometry": {
    "type": "Point",
    "coordinates": [
     139.723812,
     35.653365
    ]
   }
  },
  {
   "type": "Feature",
   "properties": {
    "bbl_stat": "Aktiv",
    "bbl_id": "1000/2800/AD",
    "bbl_buch": "1000",
    "bbl_we": "2800",
    "bbl_obj": "AD",
    "bbl_bez": "Dienstwohnungen EDA Effingerstrasse",
    "adr_land": "CH",
    "adr_reg": "BE",
    "adr_ort": "Bern",
    "adr_plz": "3008",
    "adr_str": "Effingerstrasse",
    "adr_hsnr": "29",
    "adr_conct": "Effingerstrasse 29, 3008 Bern",
    "wgs84_lat": 46.945808,
    "wgs84_lon": 7.432851,
    "lv95_e": 2598897,
    "lv95_n": 1199420,
    "egm_elev": null,
    "bbl_eigen": "Eigentum Bund",
    "bbl_ostr": "Veräussern",
    "bbl_mietm": "Marktmiete",
    "bbl_bjahr": 1934,
    "bbl_vjahr": 2018,
    "bbl_port": "Wohnliegenschaft",
    "bbl_port2": "Bundesverwaltung",
    "bbl_awrt": 5200000,
    "bbl_bwrt": 2800000,
    "bbl_gbda1": "Wohnen",
    "bbl_gbda2": "Dienstwohnungen",
    "bbl_ovtw": "Ursula Frey",
    "bbl_pvtw": "Sandra Meier",
    "av_egid": "1234494",
    "av_egrid": "CH650246873582",
    "bfs_gem": "Bern",
    "bfs_gemnr": 351,
    "av_zbez": "Wohnzone W3",
    "av_znut": "Wohnzone",
    "bbl_hist": "Ja",
    "bbl_arch": "Nein",
    "kgs_kat": null,
    "kgs_nr": null,
    "garea_gf": 1138,
    "garea_gfo": 1500,
    "garea_gfu": 300,
    "garea_acu": "Geschätzt",
    "garea_ngf": 1550,
    "garea_nf": 1350,
    "garea_hnf": 1200,
    "garea_nnf": 150,
    "garea_ff": 100,
    "garea_vf": 100,
    "garea_vmf": 1250,
    "garea_ebf": 1400,
    "gvol_gv": 3806,
    "gvol_gvo": 4500,
    "gvol_gvu": 900,
    "gvol_acu": "Geschätzt",
    "gastw": 7,
    "gastw_og": 4,
    "gastw_ug": 1,
    "gastw_acu": "Geschätzt",
    "larea_ggf": 380,
    "larea_gsf": 520,
    "larea_uf": 140,
    "larea_acu": "AV",
    "objectid": 7,
    "etl_ts": "2026-03-18T06:00:00Z",
    "bbl_architekt": "Hans Weiss, Bern (1933/34); Ehrenbold Schudel Architektur, Bern (Umbau 2017/18)",
    "bbl_nutzer": "EDA — Dienstwohnungen, DEZA Humanitäre Hilfe",
    "quellen": [
     "https://www.bbl.admin.ch/dam/de/sd-web/J-9Pctw1raik/20180701_Bern%20Effingerstrasse%2029%20Sanierung%20und%20Umbau%20zu%20Dienstwohnungen_DE.pdf"
    ],
    "datenherkunft": "BBL-Bautendokumentation; Kataster © Data: swisstopo / amtliche Vermessung",
    "media": [
     "MED-039",
     "MED-040",
     "MED-041",
     "MED-042",
     "MED-043",
     "MED-044",
     "MED-045"
    ]
   },
   "geometry": {
    "type": "Point",
    "coordinates": [
     7.432851,
     46.945808
    ]
   }
  },
  {
   "type": "Feature",
   "properties": {
    "bbl_stat": "Aktiv",
    "bbl_id": "1000/5510/AA",
    "bbl_buch": "1000",
    "bbl_we": "5510",
    "bbl_obj": "AA",
    "bbl_bez": "Schweizerische Botschaft Brasília",
    "adr_land": "BR",
    "adr_reg": "Distrito Federal",
    "adr_ort": "Brasília",
    "adr_plz": "70448-900",
    "adr_str": "SES Avenida das Nações, Qd. 811",
    "adr_hsnr": "Lote 41",
    "adr_conct": "SES Avenida das Nações, Qd. 811 Lote 41, 70448-900 Brasília",
    "wgs84_lat": -15.831611,
    "wgs84_lon": -47.897273,
    "lv95_e": null,
    "lv95_n": null,
    "egm_elev": null,
    "bbl_eigen": "Eigentum Bund",
    "bbl_ostr": "Erhalten",
    "bbl_mietm": "Vollkostenmiete",
    "bbl_bjahr": 1977,
    "bbl_vjahr": null,
    "bbl_port": "Diplomatische Vertretung",
    "bbl_port2": "Aussennetz EDA",
    "bbl_awrt": 12000000,
    "bbl_bwrt": 6500000,
    "bbl_gbda1": "Verwaltung",
    "bbl_gbda2": "Botschaft (Kanzlei)",
    "bbl_ovtw": "Maria Santos",
    "bbl_pvtw": "Monika Keller",
    "av_egid": null,
    "av_egrid": null,
    "bfs_gem": "Brasília",
    "bfs_gemnr": null,
    "av_zbez": null,
    "av_znut": null,
    "bbl_hist": "Nein",
    "bbl_arch": "Ja",
    "kgs_kat": null,
    "kgs_nr": null,
    "garea_gf": 2200,
    "garea_gfo": 2200,
    "garea_gfu": null,
    "garea_acu": "Geschätzt",
    "garea_ngf": 1900,
    "garea_nf": 1650,
    "garea_hnf": 1400,
    "garea_nnf": 250,
    "garea_ff": 150,
    "garea_vf": 100,
    "garea_vmf": 1500,
    "garea_ebf": null,
    "gvol_gv": null,
    "gvol_gvo": null,
    "gvol_gvu": null,
    "gvol_acu": null,
    "gastw": 2,
    "gastw_og": 2,
    "gastw_ug": 0,
    "gastw_acu": "Geschätzt",
    "larea_ggf": null,
    "larea_gsf": null,
    "larea_uf": null,
    "larea_acu": null,
    "objectid": 8,
    "etl_ts": "2026-03-18T06:00:00Z",
    "bbl_architekt": "Hans und Annemarie Hubacher",
    "bbl_nutzer": "EDA — Schweizerische Botschaft in Brasilien",
    "quellen": [
     "https://pt.wikipedia.org/wiki/Embaixada_da_Su%C3%AD%C3%A7a_em_Bras%C3%ADlia"
    ],
    "datenherkunft": "BBL / EDA, Koordinaten OpenStreetMap",
    "media": [
     "MED-046",
     "MED-047",
     "MED-048",
     "MED-049",
     "MED-050",
     "MED-051"
    ]
   },
   "geometry": {
    "type": "Point",
    "coordinates": [
     -47.897273,
     -15.831611
    ]
   }
  },
  {
   "type": "Feature",
   "properties": {
    "bbl_stat": "Aktiv",
    "bbl_id": "1000/1950/AE",
    "bbl_buch": "1000",
    "bbl_we": "1950",
    "bbl_obj": "AE",
    "bbl_bez": "Rechenzentrum CAMPUS Frauenfeld",
    "adr_land": "CH",
    "adr_reg": "TG",
    "adr_ort": "Frauenfeld",
    "adr_plz": "8500",
    "adr_str": "Auenfeld",
    "adr_hsnr": "",
    "adr_conct": "Auenfeld, 8500 Frauenfeld",
    "wgs84_lat": 47.570346,
    "wgs84_lon": 8.884102,
    "lv95_e": 2708430,
    "lv95_n": 1269660,
    "egm_elev": null,
    "bbl_eigen": "Eigentum Bund",
    "bbl_ostr": "Optimieren",
    "bbl_mietm": "Kostenmiete",
    "bbl_bjahr": 2019,
    "bbl_vjahr": null,
    "bbl_port": "Infrastruktur IT",
    "bbl_port2": "Bundesverwaltung",
    "bbl_awrt": 55000000,
    "bbl_bwrt": 48000000,
    "bbl_gbda1": "Infrastruktur",
    "bbl_gbda2": "Rechenzentrum",
    "bbl_ovtw": "Marco Bentivoglio",
    "bbl_pvtw": "Sandra Meier",
    "av_egid": null,
    "av_egrid": "CH652680772937",
    "bfs_gem": "Frauenfeld",
    "bfs_gemnr": 4566,
    "av_zbez": "Arbeitszone",
    "av_znut": "Arbeitszone",
    "bbl_hist": "Nein",
    "bbl_arch": "Nein",
    "kgs_kat": null,
    "kgs_nr": null,
    "garea_gf": 2000,
    "garea_gfo": 3000,
    "garea_gfu": 3000,
    "garea_acu": "Vermessen",
    "garea_ngf": 5200,
    "garea_nf": 4600,
    "garea_hnf": 4000,
    "garea_nnf": 600,
    "garea_ff": 350,
    "garea_vf": 250,
    "garea_vmf": 4200,
    "garea_ebf": 3000,
    "gvol_gv": 24000,
    "gvol_gvo": 12000,
    "gvol_gvu": 12000,
    "gvol_acu": "Vermessen",
    "gastw": 2,
    "gastw_og": 2,
    "gastw_ug": 2,
    "gastw_acu": "Vermessen",
    "larea_ggf": 1500,
    "larea_gsf": 3200,
    "larea_uf": 1700,
    "larea_acu": "AV",
    "objectid": 9,
    "etl_ts": "2026-03-18T06:00:00Z",
    "bbl_architekt": null,
    "bbl_nutzer": "BIT, Führungsunterstützungsbasis der Armee FUB, ISC-EJPD",
    "quellen": [
     "https://www.bit.admin.ch/de/rz-campus-78",
     "https://www.vtg.admin.ch/de/rechenzentrum-campus-in-frauenfeld-feiert-aufrichte"
    ],
    "datenherkunft": "BBL-Bautendokumentation; Kataster © Data: swisstopo / amtliche Vermessung",
    "media": [
     "MED-052",
     "MED-053",
     "MED-054",
     "MED-055",
     "MED-056",
     "MED-057"
    ]
   },
   "geometry": {
    "type": "Point",
    "coordinates": [
     8.884102,
     47.570346
    ]
   }
  },
  {
   "type": "Feature",
   "properties": {
    "bbl_stat": "Aktiv",
    "bbl_id": "1000/5620/AA",
    "bbl_buch": "1000",
    "bbl_we": "5620",
    "bbl_obj": "AA",
    "bbl_bez": "Schweizerische Botschaft Canberra",
    "adr_land": "AU",
    "adr_reg": "ACT",
    "adr_ort": "Canberra",
    "adr_plz": "2603",
    "adr_str": "Melbourne Avenue",
    "adr_hsnr": "7",
    "adr_conct": "Melbourne Avenue 7, 2603 Canberra",
    "wgs84_lat": -35.313476,
    "wgs84_lon": 149.121046,
    "lv95_e": null,
    "lv95_n": null,
    "egm_elev": null,
    "bbl_eigen": "Eigentum Bund",
    "bbl_ostr": "Erhalten",
    "bbl_mietm": "Vollkostenmiete",
    "bbl_bjahr": 1975,
    "bbl_vjahr": null,
    "bbl_port": "Diplomatische Vertretung",
    "bbl_port2": "Aussennetz EDA",
    "bbl_awrt": 15000000,
    "bbl_bwrt": 7200000,
    "bbl_gbda1": "Verwaltung",
    "bbl_gbda2": "Botschaft mit Residenz",
    "bbl_ovtw": "James Cooper",
    "bbl_pvtw": "Monika Keller",
    "av_egid": null,
    "av_egrid": null,
    "bfs_gem": "Forrest",
    "bfs_gemnr": null,
    "av_zbez": null,
    "av_znut": null,
    "bbl_hist": "Nein",
    "bbl_arch": "Ja",
    "kgs_kat": null,
    "kgs_nr": null,
    "garea_gf": 1800,
    "garea_gfo": 1800,
    "garea_gfu": null,
    "garea_acu": "Geschätzt",
    "garea_ngf": 1550,
    "garea_nf": 1350,
    "garea_hnf": 1150,
    "garea_nnf": 200,
    "garea_ff": 100,
    "garea_vf": 100,
    "garea_vmf": 1200,
    "garea_ebf": null,
    "gvol_gv": null,
    "gvol_gvo": null,
    "gvol_gvu": null,
    "gvol_acu": null,
    "gastw": 2,
    "gastw_og": 2,
    "gastw_ug": 0,
    "gastw_acu": "Geschätzt",
    "larea_ggf": null,
    "larea_gsf": null,
    "larea_uf": null,
    "larea_acu": null,
    "objectid": 10,
    "etl_ts": "2026-03-18T06:00:00Z",
    "bbl_architekt": "Hermann Baur und Hans Peter Baur",
    "bbl_nutzer": "EDA — Schweizerische Botschaft in Australien",
    "quellen": [
     "https://www.eda.admin.ch/countries/australia/en/home/representations/embassy-in-canberra.html"
    ],
    "datenherkunft": "BBL / EDA, Koordinaten OpenStreetMap",
    "media": [
     "MED-058",
     "MED-059",
     "MED-060",
     "MED-061",
     "MED-062",
     "MED-063"
    ]
   },
   "geometry": {
    "type": "Point",
    "coordinates": [
     149.121046,
     -35.313476
    ]
   }
  },
  {
   "type": "Feature",
   "properties": {
    "bbl_stat": "Abgang",
    "bbl_id": "1000/4850/AG",
    "bbl_buch": "1000",
    "bbl_we": "4850",
    "bbl_obj": "AG",
    "bbl_bez": "Verwaltungszentrum Guisanplatz",
    "adr_land": "CH",
    "adr_reg": "BE",
    "adr_ort": "Bern",
    "adr_plz": "3014",
    "adr_str": "Guisanplatz",
    "adr_hsnr": "1",
    "adr_conct": "Guisanplatz 1, 3014 Bern",
    "wgs84_lat": 46.959785,
    "wgs84_lon": 7.463306,
    "lv95_e": 2601210,
    "lv95_n": 1200980,
    "egm_elev": null,
    "bbl_eigen": "Verkauft",
    "bbl_ostr": "Veräussern",
    "bbl_mietm": null,
    "bbl_bjahr": 2019,
    "bbl_vjahr": null,
    "bbl_port": "Verwaltungsgebäude",
    "bbl_port2": "Bundesverwaltung",
    "bbl_awrt": 8500000,
    "bbl_bwrt": 0,
    "bbl_gbda1": "Verwaltung",
    "bbl_gbda2": "Verwaltungszentrum",
    "bbl_ovtw": null,
    "bbl_pvtw": "Thomas Weber",
    "av_egid": "191682279",
    "av_egrid": "CH208835944617",
    "bfs_gem": "Bern",
    "bfs_gemnr": 351,
    "av_zbez": "Mischzone",
    "av_znut": "Mischzone Wohnen/Arbeiten",
    "bbl_hist": "Nein",
    "bbl_arch": "Nein",
    "kgs_kat": null,
    "kgs_nr": null,
    "garea_gf": 30000,
    "garea_gfo": 2800,
    "garea_gfu": 700,
    "garea_acu": "Geschätzt",
    "garea_ngf": 3000,
    "garea_nf": 2600,
    "garea_hnf": 2200,
    "garea_nnf": 400,
    "garea_ff": 200,
    "garea_vf": 200,
    "garea_vmf": 2400,
    "garea_ebf": 2700,
    "gvol_gv": 12250,
    "gvol_gvo": 9800,
    "gvol_gvu": 2450,
    "gvol_acu": "Geschätzt",
    "gastw": 6,
    "gastw_og": 4,
    "gastw_ug": 1,
    "gastw_acu": "Geschätzt",
    "larea_ggf": 750,
    "larea_gsf": 1100,
    "larea_uf": 350,
    "larea_acu": "AV",
    "objectid": 11,
    "etl_ts": "2026-03-18T06:00:00Z",
    "bbl_architekt": "Aebi & Vincent Architekten SIA AG, Bern (Wettbewerb 2009)",
    "bbl_nutzer": "armasuisse, Bundesanwaltschaft, fedpol, BABS",
    "quellen": [
     "https://www.verwaltungszentrum-guisanplatz.ch/bauprojekt",
     "https://aebi-vincent.ch/projekte/neubau-umbau-und-sanierung-verwaltungszentrum-guisanplatz-bern/"
    ],
    "datenherkunft": "BBL-Bautendokumentation; Kataster © Data: swisstopo / amtliche Vermessung",
    "media": [
     "MED-064",
     "MED-065",
     "MED-066",
     "MED-067",
     "MED-068",
     "MED-069"
    ]
   },
   "geometry": {
    "type": "Point",
    "coordinates": [
     7.463306,
     46.959785
    ]
   }
  },
  {
   "type": "Feature",
   "geometry": {
    "type": "Point",
    "coordinates": [
     8.540567398071289,
     47.379024505615234
    ]
   },
   "properties": {
    "bbl_stat": "Aktiv",
    "bbl_id": "1000/6100/AA",
    "bbl_buch": "1000",
    "bbl_we": "6100",
    "bbl_obj": "AA",
    "bbl_bez": "Landesmuseum Zürich",
    "adr_land": "CH",
    "adr_reg": "ZH",
    "adr_ort": "Zürich",
    "adr_plz": "8001",
    "adr_str": "Museumstrasse",
    "adr_hsnr": "2",
    "adr_conct": "Museumstrasse 2, 8001 Zürich",
    "wgs84_lat": 47.379024505615234,
    "wgs84_lon": 8.540567398071289,
    "lv95_e": 2683215,
    "lv95_n": 1248160.5,
    "egm_elev": null,
    "bbl_eigen": "Eigentum Bund",
    "bbl_ostr": "Erhalten",
    "bbl_mietm": "Vollkostenmiete",
    "bbl_bjahr": 1898,
    "bbl_vjahr": 2016,
    "bbl_port": "Kultur",
    "bbl_port2": "Bundesverwaltung",
    "bbl_gbda1": "Kultur",
    "bbl_gbda2": "Museum",
    "bbl_awrt": 126000000,
    "bbl_bwrt": 60000000,
    "bbl_ovtw": "Anna Müller",
    "bbl_pvtw": "Thomas Weber",
    "av_egid": "2372933",
    "av_egrid": "CH385599917023",
    "bfs_gem": "Zürich",
    "bfs_gemnr": 261,
    "av_zbez": "Verwaltungszone",
    "av_znut": "Zone für öffentliche Nutzung",
    "bbl_hist": "Ja",
    "bbl_arch": "Ja",
    "kgs_kat": "A",
    "kgs_nr": 7873,
    "garea_gf": 11800,
    "garea_gfo": 9912,
    "garea_gfu": 1888,
    "garea_acu": "Vermessen",
    "garea_ngf": 10148,
    "garea_nf": 8968,
    "garea_hnf": 7552,
    "garea_nnf": 1416,
    "garea_ff": 590,
    "garea_vf": 590,
    "garea_vmf": 7906,
    "garea_ebf": 9676,
    "gvol_gv": 62500,
    "gvol_gvo": 50625,
    "gvol_gvu": 11875,
    "gvol_acu": "Vermessen",
    "gastw": 4,
    "gastw_og": 3,
    "gastw_ug": 1,
    "gastw_acu": "Vermessen",
    "larea_ggf": null,
    "larea_gsf": 18938,
    "larea_uf": null,
    "larea_acu": "AV",
    "objectid": 12,
    "etl_ts": "2026-07-29T06:00:00Z",
    "bbl_architekt": "Gustav Gull (1898); Christ & Gantenbein, Basel (Erweiterung 2012–2016)",
    "bbl_nutzer": "Schweizerisches Nationalmuseum SNM",
    "bbl_kategorie": "10 Kultur und Denkmäler",
    "bbl_nachhaltigkeit": "Minergie P",
    "bbl_anlagekosten": 109960000,
    "quellen": [
     "https://www.bbl.admin.ch/dam/de/sd-web/a74sKG5sCA0H/20160101_Z%C3%BCrich%20Museumstrasse%202%20Landesmuseum%20Z%C3%BCrich%20Erweiterung_DE.pdf"
    ],
    "datenherkunft": "BBL-Bautendokumentation; Kataster © Data: swisstopo / amtliche Vermessung",
    "media": [
     "MED-070",
     "MED-071",
     "MED-072",
     "MED-073",
     "MED-074",
     "MED-075",
     "MED-076"
    ]
   }
  },
  {
   "type": "Feature",
   "geometry": {
    "type": "Point",
    "coordinates": [
     7.964066505432129,
     46.3072624206543
    ]
   },
   "properties": {
    "bbl_stat": "Aktiv",
    "bbl_id": "1000/6210/AA",
    "bbl_buch": "1000",
    "bbl_we": "6210",
    "bbl_obj": "AA",
    "bbl_bez": "Zollanlage Brig-Glis",
    "adr_land": "CH",
    "adr_reg": "VS",
    "adr_ort": "Glis",
    "adr_plz": "3902",
    "adr_str": "Bielstrasse",
    "adr_hsnr": "1",
    "adr_conct": "Bielstrasse 1, 3902 Glis",
    "wgs84_lat": 46.3072624206543,
    "wgs84_lon": 7.964066505432129,
    "lv95_e": 2640477.75,
    "lv95_n": 1128563.625,
    "egm_elev": null,
    "bbl_eigen": "Eigentum Bund",
    "bbl_ostr": "Erhalten",
    "bbl_mietm": "Vollkostenmiete",
    "bbl_bjahr": 2017,
    "bbl_vjahr": null,
    "bbl_port": "Zoll",
    "bbl_port2": "Bundesverwaltung",
    "bbl_gbda1": "Zoll",
    "bbl_gbda2": "Zollanlage",
    "bbl_awrt": 25000000,
    "bbl_bwrt": 12000000,
    "bbl_ovtw": "Anna Müller",
    "bbl_pvtw": "Thomas Weber",
    "av_egid": "191208950",
    "av_egrid": "CH713038525960",
    "bfs_gem": "Glis",
    "bfs_gemnr": 6002,
    "av_zbez": "Verwaltungszone",
    "av_znut": "Zone für öffentliche Nutzung",
    "bbl_hist": "Nein",
    "bbl_arch": "Ja",
    "kgs_kat": null,
    "kgs_nr": null,
    "garea_gf": 2865,
    "garea_gfo": 2407,
    "garea_gfu": 458,
    "garea_acu": "Vermessen",
    "garea_ngf": 2464,
    "garea_nf": 2177,
    "garea_hnf": 1834,
    "garea_nnf": 344,
    "garea_ff": 143,
    "garea_vf": 143,
    "garea_vmf": 1920,
    "garea_ebf": 2349,
    "gvol_gv": 13725,
    "gvol_gvo": 11117,
    "gvol_gvu": 2608,
    "gvol_acu": "Vermessen",
    "gastw": 3,
    "gastw_og": 2,
    "gastw_ug": 1,
    "gastw_acu": "Vermessen",
    "larea_ggf": null,
    "larea_gsf": null,
    "larea_uf": null,
    "larea_acu": "AV",
    "objectid": 14,
    "etl_ts": "2026-07-29T06:00:00Z",
    "bbl_architekt": "Albrecht Architekten AG SIA, Brig",
    "bbl_nutzer": "Bundesamt für Zoll und Grenzsicherheit BAZG",
    "bbl_kategorie": "13 Verkehrs- und Zollanlagen",
    "bbl_nachhaltigkeit": "Minergie-P-Eco",
    "bbl_anlagekosten": 21400000,
    "quellen": [
     "https://www.bbl.admin.ch/dam/de/sd-web/L8T9Eq2aX8-u/20170101_Brig-Glis%20Bielstrasse%201%20Neubau%20Zollanlage_DE.pdf"
    ],
    "datenherkunft": "BBL-Bautendokumentation; Kataster © Data: swisstopo / amtliche Vermessung",
    "media": [
     "MED-077",
     "MED-078",
     "MED-079",
     "MED-080",
     "MED-081",
     "MED-082"
    ]
   }
  },
  {
   "type": "Feature",
   "geometry": {
    "type": "Point",
    "coordinates": [
     9.4371337890625,
     47.51472854614258
    ]
   },
   "properties": {
    "bbl_stat": "Aktiv",
    "bbl_id": "1000/6320/AA",
    "bbl_buch": "1000",
    "bbl_we": "6320",
    "bbl_obj": "AA",
    "bbl_bez": "Bootshaus Grenzwachtposten Arbon",
    "adr_land": "CH",
    "adr_reg": "TG",
    "adr_ort": "Arbon",
    "adr_plz": "9320",
    "adr_str": "Hafenstrasse",
    "adr_hsnr": "3",
    "adr_conct": "Hafenstrasse 3, 9320 Arbon",
    "wgs84_lat": 47.51472854614258,
    "wgs84_lon": 9.4371337890625,
    "lv95_e": 2750525,
    "lv95_n": 1264581.625,
    "egm_elev": null,
    "bbl_eigen": "Eigentum Bund",
    "bbl_ostr": "Erhalten",
    "bbl_mietm": "Vollkostenmiete",
    "bbl_bjahr": null,
    "bbl_vjahr": 2016,
    "bbl_port": "Zoll",
    "bbl_port2": "Bundesverwaltung",
    "bbl_gbda1": "Zoll",
    "bbl_gbda2": "Bootshaus in Holzbauweise System Hetzer",
    "bbl_awrt": 0,
    "bbl_bwrt": 0,
    "bbl_ovtw": "Anna Müller",
    "bbl_pvtw": "Thomas Weber",
    "av_egid": "640002",
    "av_egrid": "CH651426772080",
    "bfs_gem": "Arbon",
    "bfs_gemnr": 4401,
    "av_zbez": "Verwaltungszone",
    "av_znut": "Zone für öffentliche Nutzung",
    "bbl_hist": "Ja",
    "bbl_arch": "Ja",
    "kgs_kat": null,
    "kgs_nr": null,
    "garea_gf": 65,
    "garea_gfo": 55,
    "garea_gfu": 10,
    "garea_acu": "Vermessen",
    "garea_ngf": 56,
    "garea_nf": 49,
    "garea_hnf": 42,
    "garea_nnf": 8,
    "garea_ff": 3,
    "garea_vf": 3,
    "garea_vmf": 44,
    "garea_ebf": 53,
    "gvol_gv": 994,
    "gvol_gvo": 805,
    "gvol_gvu": 189,
    "gvol_acu": "Vermessen",
    "gastw": 1,
    "gastw_og": 1,
    "gastw_ug": 1,
    "gastw_acu": "Vermessen",
    "larea_ggf": null,
    "larea_gsf": 2317,
    "larea_uf": null,
    "larea_acu": "AV",
    "objectid": 16,
    "etl_ts": "2026-07-29T06:00:00Z",
    "bbl_architekt": "Zech Architektur, Romanshorn (Sanierung 2015/16)",
    "bbl_nutzer": "BAZG — Grenzwachtposten Arbon",
    "bbl_kategorie": "12 Freizeit, Sport und Erholung",
    "bbl_nachhaltigkeit": null,
    "bbl_anlagekosten": 330000,
    "quellen": [
     "https://www.bbl.admin.ch/dam/de/sd-web/WMthYdID6KZo/20160301_Arbon%2C%20Hafenstrasse%203%2C%20Umbau%20und%20Sanierung%20Bootshaus_DE.pdf"
    ],
    "datenherkunft": "BBL-Bautendokumentation; Kataster © Data: swisstopo / amtliche Vermessung",
    "media": [
     "MED-083",
     "MED-084",
     "MED-085",
     "MED-086",
     "MED-087",
     "MED-088"
    ]
   }
  },
  {
   "type": "Feature",
   "geometry": {
    "type": "Point",
    "coordinates": [
     7.449760913848877,
     46.94121551513672
    ]
   },
   "properties": {
    "bbl_stat": "Aktiv",
    "bbl_id": "1000/6430/AA",
    "bbl_buch": "1000",
    "bbl_we": "6430",
    "bbl_obj": "AA",
    "bbl_bez": "Schweizerische Nationalbibliothek, Tiefmagazin West",
    "adr_land": "CH",
    "adr_reg": "BE",
    "adr_ort": "Bern",
    "adr_plz": "3005",
    "adr_str": "Hallwylstrasse",
    "adr_hsnr": "15",
    "adr_conct": "Hallwylstrasse 15, 3005 Bern",
    "wgs84_lat": 46.94121551513672,
    "wgs84_lon": 7.449760913848877,
    "lv95_e": 2600847.25,
    "lv95_n": 1198903.125,
    "egm_elev": null,
    "bbl_eigen": "Eigentum Bund",
    "bbl_ostr": "Erhalten",
    "bbl_mietm": "Vollkostenmiete",
    "bbl_bjahr": 1931,
    "bbl_vjahr": 2009,
    "bbl_port": "Lager / Logistik",
    "bbl_port2": "Bundesverwaltung",
    "bbl_gbda1": "Bildung",
    "bbl_gbda2": "Bibliotheksmagazin",
    "bbl_awrt": 40000000,
    "bbl_bwrt": 19000000,
    "bbl_ovtw": "Anna Müller",
    "bbl_pvtw": "Thomas Weber",
    "av_egid": "1236008",
    "av_egrid": "CH386746357647",
    "bfs_gem": "Bern",
    "bfs_gemnr": 351,
    "av_zbez": "Verwaltungszone",
    "av_znut": "Zone für öffentliche Nutzung",
    "bbl_hist": "Ja",
    "bbl_arch": "Ja",
    "kgs_kat": "A",
    "kgs_nr": null,
    "garea_gf": 9503,
    "garea_gfo": 7983,
    "garea_gfu": 1520,
    "garea_acu": "Vermessen",
    "garea_ngf": 8173,
    "garea_nf": 7222,
    "garea_hnf": 6082,
    "garea_nnf": 1140,
    "garea_ff": 475,
    "garea_vf": 475,
    "garea_vmf": 6367,
    "garea_ebf": 7792,
    "gvol_gv": 34244,
    "gvol_gvo": 27738,
    "gvol_gvu": 6506,
    "gvol_acu": "Vermessen",
    "gastw": 4,
    "gastw_og": 3,
    "gastw_ug": 1,
    "gastw_acu": "Vermessen",
    "larea_ggf": null,
    "larea_gsf": 8326,
    "larea_uf": null,
    "larea_acu": "AV",
    "objectid": 18,
    "etl_ts": "2026-07-29T06:00:00Z",
    "bbl_architekt": "Alfred Oeschger (1931); ALB Architektengemeinschaft AG, Bern (Tiefmagazin 2005–2009)",
    "bbl_nutzer": "Schweizerische Nationalbibliothek NB",
    "bbl_kategorie": "02 Bildung",
    "bbl_nachhaltigkeit": null,
    "bbl_anlagekosten": 34440000,
    "quellen": [
     "https://www.bbl.admin.ch/dam/de/sd-web/5U3bqrgbR-kO/20090801_Bern%2C%20Hallwylstrasse%2015%2C%20Nationalbibliothek%2C%20Tiefmagazin%20West_DE.pdf"
    ],
    "datenherkunft": "BBL-Bautendokumentation; Kataster © Data: swisstopo / amtliche Vermessung",
    "media": [
     "MED-089",
     "MED-090",
     "MED-091",
     "MED-092",
     "MED-093",
     "MED-094",
     "MED-095"
    ]
   }
  },
  {
   "type": "Feature",
   "geometry": {
    "type": "Point",
    "coordinates": [
     7.462268829345703,
     46.99821472167969
    ]
   },
   "properties": {
    "bbl_stat": "Aktiv",
    "bbl_id": "1000/6540/AA",
    "bbl_buch": "1000",
    "bbl_we": "6540",
    "bbl_obj": "AA",
    "bbl_bez": "Verwaltungsgebäude Eichenweg 5, Areal Meielen Nord",
    "adr_land": "CH",
    "adr_reg": "BE",
    "adr_ort": "Zollikofen",
    "adr_plz": "3052",
    "adr_str": "Eichenweg",
    "adr_hsnr": "5",
    "adr_conct": "Eichenweg 5, 3052 Zollikofen",
    "wgs84_lat": 46.99821472167969,
    "wgs84_lon": 7.462268829345703,
    "lv95_e": 2601797.75,
    "lv95_n": 1205239.875,
    "egm_elev": null,
    "bbl_eigen": "Eigentum Bund",
    "bbl_ostr": "Erhalten",
    "bbl_mietm": "Vollkostenmiete",
    "bbl_bjahr": 2023,
    "bbl_vjahr": null,
    "bbl_port": "Verwaltungsgebäude",
    "bbl_port2": "Bundesverwaltung",
    "bbl_gbda1": "Verwaltung",
    "bbl_gbda2": "Verwaltungsgebäude",
    "bbl_awrt": 125000000,
    "bbl_bwrt": 60000000,
    "bbl_ovtw": "Anna Müller",
    "bbl_pvtw": "Thomas Weber",
    "av_egid": "191845156",
    "av_egrid": "CH708235374683",
    "bfs_gem": "Zollikofen",
    "bfs_gemnr": 361,
    "av_zbez": "Verwaltungszone",
    "av_znut": "Zone für öffentliche Nutzung",
    "bbl_hist": "Nein",
    "bbl_arch": "Nein",
    "kgs_kat": null,
    "kgs_nr": null,
    "garea_gf": 33600,
    "garea_gfo": 28224,
    "garea_gfu": 5376,
    "garea_acu": "Vermessen",
    "garea_ngf": 28896,
    "garea_nf": 25536,
    "garea_hnf": 21504,
    "garea_nnf": 4032,
    "garea_ff": 1680,
    "garea_vf": 1680,
    "garea_vmf": 22512,
    "garea_ebf": 27552,
    "gvol_gv": 120000,
    "gvol_gvo": 97200,
    "gvol_gvu": 22800,
    "gvol_acu": "Vermessen",
    "gastw": 9,
    "gastw_og": 8,
    "gastw_ug": 1,
    "gastw_acu": "Vermessen",
    "larea_ggf": null,
    "larea_gsf": 12575,
    "larea_uf": null,
    "larea_acu": "AV",
    "objectid": 20,
    "etl_ts": "2026-07-29T06:00:00Z",
    "bbl_architekt": "Bauart Architekten und Planer AG, Bern",
    "bbl_nutzer": "Eidgenössisches Departement für auswärtige Angelegenheiten EDA",
    "bbl_kategorie": "06 Verwaltung",
    "bbl_nachhaltigkeit": "SNBS Platin, Minergie-P-Eco, GI Gutes Innenraumklima",
    "bbl_anlagekosten": 108400000,
    "quellen": [
     "https://www.bbl.admin.ch/dam/de/sd-web/As-mSgpYIcn9/20230101_Zollikofen%2C%20Eichenweg%205%2C%20Neubau%20Verwaltungsgeb%C3%A4ude.pdf"
    ],
    "datenherkunft": "BBL-Bautendokumentation; Kataster © Data: swisstopo / amtliche Vermessung",
    "media": [
     "MED-096",
     "MED-097",
     "MED-098",
     "MED-099",
     "MED-100",
     "MED-101"
    ]
   }
  },
  {
   "type": "Feature",
   "geometry": {
    "type": "Point",
    "coordinates": [
     7.42135763168335,
     46.929893493652344
    ]
   },
   "properties": {
    "bbl_stat": "Aktiv",
    "bbl_id": "1000/6650/AA",
    "bbl_buch": "1000",
    "bbl_we": "6650",
    "bbl_obj": "AA",
    "bbl_bez": "Verwaltungsgebäude Liebefeld (BAG / BLV)",
    "adr_land": "CH",
    "adr_reg": "BE",
    "adr_ort": "Liebefeld",
    "adr_plz": "3097",
    "adr_str": "Schwarzenburgstrasse",
    "adr_hsnr": "157",
    "adr_conct": "Schwarzenburgstrasse 157, 3097 Liebefeld",
    "wgs84_lat": 46.929893493652344,
    "wgs84_lon": 7.42135763168335,
    "lv95_e": 2598684.5,
    "lv95_n": 1197644.625,
    "egm_elev": null,
    "bbl_eigen": "Eigentum Bund",
    "bbl_ostr": "Erhalten",
    "bbl_mietm": "Vollkostenmiete",
    "bbl_bjahr": 2015,
    "bbl_vjahr": null,
    "bbl_port": "Verwaltungsgebäude",
    "bbl_port2": "Bundesverwaltung",
    "bbl_gbda1": "Verwaltung",
    "bbl_gbda2": "Verwaltungsgebäude",
    "bbl_awrt": 124000000,
    "bbl_bwrt": 59000000,
    "bbl_ovtw": "Anna Müller",
    "bbl_pvtw": "Thomas Weber",
    "av_egid": "191458950",
    "av_egrid": "CH208035154682",
    "bfs_gem": "Liebefeld",
    "bfs_gemnr": 355,
    "av_zbez": "Verwaltungszone",
    "av_znut": "Zone für öffentliche Nutzung",
    "bbl_hist": "Nein",
    "bbl_arch": "Nein",
    "kgs_kat": null,
    "kgs_nr": null,
    "garea_gf": 29900,
    "garea_gfo": 25116,
    "garea_gfu": 4784,
    "garea_acu": "Vermessen",
    "garea_ngf": 25714,
    "garea_nf": 22724,
    "garea_hnf": 19136,
    "garea_nnf": 3588,
    "garea_ff": 1495,
    "garea_vf": 1495,
    "garea_vmf": 20033,
    "garea_ebf": 24518,
    "gvol_gv": 124500,
    "gvol_gvo": 100845,
    "gvol_gvu": 23655,
    "gvol_acu": "Vermessen",
    "gastw": 7,
    "gastw_og": 6,
    "gastw_ug": 1,
    "gastw_acu": "Vermessen",
    "larea_ggf": null,
    "larea_gsf": 55432,
    "larea_uf": null,
    "larea_acu": "AV",
    "objectid": 22,
    "etl_ts": "2026-07-29T06:00:00Z",
    "bbl_architekt": "Matti Ragaz Hitz Architekten AG, Liebefeld",
    "bbl_nutzer": "Bundesamt für Gesundheit BAG; Bundesamt für Lebensmittelsicherheit und Veterinärwesen BLV",
    "bbl_kategorie": "06 Verwaltung",
    "bbl_nachhaltigkeit": "Minergie-P-Eco",
    "bbl_anlagekosten": 107825000,
    "quellen": [
     "https://www.bbl.admin.ch/dam/de/sd-web/DhpU2Dp9QFh8/20150801_Liebefeld%20Schwarzenburgstrasse%20157%2C%20Neubau%20Verwaltungsgeb%C3%A4ude_DE.pdf"
    ],
    "datenherkunft": "BBL-Bautendokumentation; Kataster © Data: swisstopo / amtliche Vermessung",
    "media": [
     "MED-102",
     "MED-103",
     "MED-104",
     "MED-105",
     "MED-106",
     "MED-107"
    ]
   }
  },
  {
   "type": "Feature",
   "geometry": {
    "type": "Point",
    "coordinates": [
     7.209400653839111,
     47.13838195800781
    ]
   },
   "properties": {
    "bbl_stat": "Aktiv",
    "bbl_id": "1000/6760/AA",
    "bbl_buch": "1000",
    "bbl_we": "6760",
    "bbl_obj": "AA",
    "bbl_bez": "EHSM Magglingen, Neubau Lärchenplatz",
    "adr_land": "CH",
    "adr_reg": "BE",
    "adr_ort": "Magglingen/Macolin",
    "adr_plz": "2532",
    "adr_str": "Alpenstrasse",
    "adr_hsnr": "18",
    "adr_conct": "Alpenstrasse 18, 2532 Magglingen/Macolin",
    "wgs84_lat": 47.13838195800781,
    "wgs84_lon": 7.209400653839111,
    "lv95_e": 2582610.75,
    "lv95_n": 1220848.375,
    "egm_elev": null,
    "bbl_eigen": "Eigentum Bund",
    "bbl_ostr": "Erhalten",
    "bbl_mietm": "Vollkostenmiete",
    "bbl_bjahr": 2023,
    "bbl_vjahr": null,
    "bbl_port": "Ausbildung",
    "bbl_port2": "Bundesverwaltung",
    "bbl_gbda1": "Sport",
    "bbl_gbda2": "Hochschulgebäude",
    "bbl_awrt": 51000000,
    "bbl_bwrt": 25000000,
    "bbl_ovtw": "Anna Müller",
    "bbl_pvtw": "Thomas Weber",
    "av_egid": "191964452",
    "av_egrid": "CH794612143531",
    "bfs_gem": "Magglingen/Macolin",
    "bfs_gemnr": 372,
    "av_zbez": "Verwaltungszone",
    "av_znut": "Zone für öffentliche Nutzung",
    "bbl_hist": "Nein",
    "bbl_arch": "Nein",
    "kgs_kat": null,
    "kgs_nr": null,
    "garea_gf": 8494,
    "garea_gfo": 7135,
    "garea_gfu": 1359,
    "garea_acu": "Vermessen",
    "garea_ngf": 7305,
    "garea_nf": 6455,
    "garea_hnf": 5436,
    "garea_nnf": 1019,
    "garea_ff": 425,
    "garea_vf": 425,
    "garea_vmf": 5691,
    "garea_ebf": 6965,
    "gvol_gv": 41027,
    "gvol_gvo": 33232,
    "gvol_gvu": 7795,
    "gvol_acu": "Vermessen",
    "gastw": 4,
    "gastw_og": 3,
    "gastw_ug": 1,
    "gastw_acu": "Vermessen",
    "larea_ggf": null,
    "larea_gsf": null,
    "larea_uf": null,
    "larea_acu": "AV",
    "objectid": 24,
    "etl_ts": "2026-07-29T06:00:00Z",
    "bbl_architekt": "Kim Strebel Architekten GmbH, Aarau",
    "bbl_nutzer": "Bundesamt für Sport BASPO — Eidg. Hochschule für Sport Magglingen EHSM",
    "bbl_kategorie": "12 Sport",
    "bbl_nachhaltigkeit": null,
    "bbl_anlagekosten": 44696000,
    "quellen": [
     "https://www.bbl.admin.ch/dam/de/sd-web/29cGCSMzFsRS/20230901_Magglingen%2C%20Alpenstrasse%2018%2C%20Neubau%20L%C3%A4rchenplatz_DE.pdf"
    ],
    "datenherkunft": "BBL-Bautendokumentation; Kataster © Data: swisstopo / amtliche Vermessung",
    "media": [
     "MED-108",
     "MED-109",
     "MED-110",
     "MED-111",
     "MED-112",
     "MED-113"
    ]
   }
  },
  {
   "type": "Feature",
   "geometry": {
    "type": "Point",
    "coordinates": [
     7.451352119445801,
     46.92793655395508
    ]
   },
   "properties": {
    "bbl_stat": "Aktiv",
    "bbl_id": "1000/6870/AA",
    "bbl_buch": "1000",
    "bbl_we": "6870",
    "bbl_obj": "AA",
    "bbl_bez": "Bundesamt für Landestopografie swisstopo",
    "adr_land": "CH",
    "adr_reg": "BE",
    "adr_ort": "Wabern",
    "adr_plz": "3084",
    "adr_str": "Seftigenstrasse",
    "adr_hsnr": "264",
    "adr_conct": "Seftigenstrasse 264, 3084 Wabern",
    "wgs84_lat": 46.92793655395508,
    "wgs84_lon": 7.451352119445801,
    "lv95_e": 2600968.75,
    "lv95_n": 1197427,
    "egm_elev": null,
    "bbl_eigen": "Eigentum Bund",
    "bbl_ostr": "Erhalten",
    "bbl_mietm": "Vollkostenmiete",
    "bbl_bjahr": 1945,
    "bbl_vjahr": 2005,
    "bbl_port": "Verwaltungsgebäude",
    "bbl_port2": "Bundesverwaltung",
    "bbl_gbda1": "Produktion",
    "bbl_gbda2": "Verwaltungs- und Produktionsgebäude",
    "bbl_awrt": 17000000,
    "bbl_bwrt": 8000000,
    "bbl_ovtw": "Anna Müller",
    "bbl_pvtw": "Thomas Weber",
    "av_egid": "1272199",
    "av_egrid": "CH669746359158",
    "bfs_gem": "Wabern",
    "bfs_gemnr": 355,
    "av_zbez": "Verwaltungszone",
    "av_znut": "Zone für öffentliche Nutzung",
    "bbl_hist": "Nein",
    "bbl_arch": "Nein",
    "kgs_kat": null,
    "kgs_nr": null,
    "garea_gf": 3143,
    "garea_gfo": 2640,
    "garea_gfu": 503,
    "garea_acu": "Vermessen",
    "garea_ngf": 2703,
    "garea_nf": 2389,
    "garea_hnf": 2012,
    "garea_nnf": 377,
    "garea_ff": 157,
    "garea_vf": 157,
    "garea_vmf": 2106,
    "garea_ebf": 2577,
    "gvol_gv": null,
    "gvol_gvo": null,
    "gvol_gvu": null,
    "gvol_acu": "Vermessen",
    "gastw": 4,
    "gastw_og": 3,
    "gastw_ug": 1,
    "gastw_acu": "Vermessen",
    "larea_ggf": null,
    "larea_gsf": 11976,
    "larea_uf": null,
    "larea_acu": "AV",
    "objectid": 26,
    "etl_ts": "2026-07-29T06:00:00Z",
    "bbl_architekt": "Oeschger & Reimann Architekten, or.arch GmbH, Zürich (Ausbau 2003–2005)",
    "bbl_nutzer": "Bundesamt für Landestopografie swisstopo",
    "bbl_kategorie": "03 Produktionsbauten",
    "bbl_nachhaltigkeit": null,
    "bbl_anlagekosten": 15200000,
    "quellen": [
     "https://www.bbl.admin.ch/dam/de/sd-web/0K4TuZJcwZmy/Wabern%2C%20Seftigenstrasse%20264%2C%20Bundesamt%20f%C3%BCr%20Landestopografie_DE.pdf"
    ],
    "datenherkunft": "BBL-Bautendokumentation; Kataster © Data: swisstopo / amtliche Vermessung",
    "media": [
     "MED-114",
     "MED-115",
     "MED-116",
     "MED-117",
     "MED-118",
     "MED-119",
     "MED-120"
    ]
   }
  },
  {
   "type": "Feature",
   "geometry": {
    "type": "Point",
    "coordinates": [
     7.430766582489014,
     46.944454193115234
    ]
   },
   "properties": {
    "bbl_stat": "Aktiv",
    "bbl_id": "1000/6980/AA",
    "bbl_buch": "1000",
    "bbl_we": "6980",
    "bbl_obj": "AA",
    "bbl_bez": "Bundesverwaltungsgericht Schwarztorstrasse",
    "adr_land": "CH",
    "adr_reg": "BE",
    "adr_ort": "Bern",
    "adr_plz": "3007",
    "adr_str": "Schwarztorstrasse",
    "adr_hsnr": "59",
    "adr_conct": "Schwarztorstrasse 59, 3007 Bern",
    "wgs84_lat": 46.944454193115234,
    "wgs84_lon": 7.430766582489014,
    "lv95_e": 2599401,
    "lv95_n": 1199263,
    "egm_elev": null,
    "bbl_eigen": "Eigentum Bund",
    "bbl_ostr": "Erhalten",
    "bbl_mietm": "Vollkostenmiete",
    "bbl_bjahr": 1972,
    "bbl_vjahr": 2006,
    "bbl_port": "Verwaltungsgebäude",
    "bbl_port2": "Bundesverwaltung",
    "bbl_gbda1": "Justiz",
    "bbl_gbda2": "Gerichtsgebäude",
    "bbl_awrt": 9000000,
    "bbl_bwrt": 4000000,
    "bbl_ovtw": "Anna Müller",
    "bbl_pvtw": "Thomas Weber",
    "av_egid": "2245724",
    "av_egrid": "CH843546762721",
    "bfs_gem": "Bern",
    "bfs_gemnr": 351,
    "av_zbez": "Verwaltungszone",
    "av_znut": "Zone für öffentliche Nutzung",
    "bbl_hist": "Nein",
    "bbl_arch": "Ja",
    "kgs_kat": null,
    "kgs_nr": null,
    "garea_gf": 494,
    "garea_gfo": 415,
    "garea_gfu": 79,
    "garea_acu": "Vermessen",
    "garea_ngf": 425,
    "garea_nf": 375,
    "garea_hnf": 316,
    "garea_nnf": 59,
    "garea_ff": 25,
    "garea_vf": 25,
    "garea_vmf": 331,
    "garea_ebf": 405,
    "gvol_gv": null,
    "gvol_gvo": null,
    "gvol_gvu": null,
    "gvol_acu": "Vermessen",
    "gastw": 6,
    "gastw_og": 5,
    "gastw_ug": 1,
    "gastw_acu": "Vermessen",
    "larea_ggf": null,
    "larea_gsf": 827,
    "larea_uf": null,
    "larea_acu": "AV",
    "objectid": 28,
    "etl_ts": "2026-07-29T06:00:00Z",
    "bbl_architekt": "Frank Geiser (1972); Burckhardt+Partner AG, Bern (Sanierung 2006)",
    "bbl_nutzer": "Bundesverwaltungsgericht BVGer",
    "bbl_kategorie": "07 Justiz",
    "bbl_nachhaltigkeit": null,
    "bbl_anlagekosten": 7684000,
    "quellen": [
     "https://www.bbl.admin.ch/dam/de/sd-web/gRVjdIc39LvZ/20061201_Bern%2C%20Bundesverwaltungsgericht%2C%20Umbau%20und%20Sanierung_DE.pdf"
    ],
    "datenherkunft": "BBL-Bautendokumentation; Kataster © Data: swisstopo / amtliche Vermessung",
    "media": [
     "MED-121",
     "MED-122",
     "MED-123",
     "MED-124",
     "MED-125",
     "MED-126"
    ]
   }
  },
  {
   "type": "Feature",
   "geometry": {
    "type": "Point",
    "coordinates": [
     7.445525169372559,
     46.94707107543945
    ]
   },
   "properties": {
    "bbl_stat": "Aktiv",
    "bbl_id": "1000/7090/AA",
    "bbl_buch": "1000",
    "bbl_we": "7090",
    "bbl_obj": "AA",
    "bbl_bez": "Bundeshaus Nord",
    "adr_land": "CH",
    "adr_reg": "BE",
    "adr_ort": "Bern",
    "adr_plz": "3011",
    "adr_str": "Kochergasse",
    "adr_hsnr": "10",
    "adr_conct": "Kochergasse 10, 3011 Bern",
    "wgs84_lat": 46.94707107543945,
    "wgs84_lon": 7.445525169372559,
    "lv95_e": 2600524.75,
    "lv95_n": 1199554,
    "egm_elev": null,
    "bbl_eigen": "Eigentum Bund",
    "bbl_ostr": "Erhalten",
    "bbl_mietm": "Vollkostenmiete",
    "bbl_bjahr": 1915,
    "bbl_vjahr": 2018,
    "bbl_port": "Verwaltungsgebäude",
    "bbl_port2": "Bundesverwaltung",
    "bbl_gbda1": "Verwaltung",
    "bbl_gbda2": "Departementsgebäude",
    "bbl_awrt": 33000000,
    "bbl_bwrt": 16000000,
    "bbl_ovtw": "Anna Müller",
    "bbl_pvtw": "Thomas Weber",
    "av_egid": "1230563",
    "av_egrid": "CH307635434672",
    "bfs_gem": "Bern",
    "bfs_gemnr": 351,
    "av_zbez": "Verwaltungszone",
    "av_znut": "Zone für öffentliche Nutzung",
    "bbl_hist": "Ja",
    "bbl_arch": "Ja",
    "kgs_kat": "A",
    "kgs_nr": 615,
    "garea_gf": 6798,
    "garea_gfo": 5710,
    "garea_gfu": 1088,
    "garea_acu": "Vermessen",
    "garea_ngf": 5846,
    "garea_nf": 5166,
    "garea_hnf": 4351,
    "garea_nnf": 816,
    "garea_ff": 340,
    "garea_vf": 340,
    "garea_vmf": 4555,
    "garea_ebf": 5574,
    "gvol_gv": 26340,
    "gvol_gvo": 21335,
    "gvol_gvu": 5005,
    "gvol_acu": "Vermessen",
    "gastw": 9,
    "gastw_og": 8,
    "gastw_ug": 1,
    "gastw_acu": "Vermessen",
    "larea_ggf": null,
    "larea_gsf": 1426,
    "larea_uf": null,
    "larea_acu": "AV",
    "objectid": 30,
    "etl_ts": "2026-07-29T06:00:00Z",
    "bbl_architekt": "Eduard Joos (1912–1915); AAP Atelier für Architektur und Planung AG, Bolligen (Instandsetzung 2015–2018)",
    "bbl_nutzer": "UVEK Generalsekretariat; EDA Direktion für Völkerrecht",
    "bbl_kategorie": "06 Verwaltung",
    "bbl_nachhaltigkeit": null,
    "bbl_anlagekosten": 29084000,
    "quellen": [
     "https://www.bbl.admin.ch/dam/de/sd-web/4o24cRZ8Su4y/20180301_Bern%20Kochergasse%2010%2C%20Instandsetzung%20Bundeshaus%20Nord_DE.pdf"
    ],
    "datenherkunft": "BBL-Bautendokumentation; Kataster © Data: swisstopo / amtliche Vermessung",
    "media": [
     "MED-127",
     "MED-128",
     "MED-129",
     "MED-130",
     "MED-131",
     "MED-132",
     "MED-133"
    ]
   }
  }
 ]
}